STARLINK-34879          
1 65377U 25190AC  26162.12274233  .00011662  00000+0  40521-3 0  9996
2 65377  53.1588  93.9395 0001413  92.6530 267.4633 15.30203147 44063
STARLINK-34912          
1 65378U 25190AD  26162.50829649  .00022652  00000+0  77432-3 0  9998
2 65378  53.1577  92.0780 0001312  89.1275 270.9876 15.30210994 44128
STARLINK-34985          
1 65379U 25191A   26162.71152213  .00158439  00000+0  10645-1 0  9993
2 65379  97.3776  33.3312 0005366 155.5673 204.5810 15.05983256 44415
STARLINK-35051          
1 65380U 25191B   26162.60915848  .00001581  00000+0  11352-3 0  9997
2 65380  97.3747  33.3162 0002434  84.4984 275.6521 15.05656124 44415
STARLINK-35028          
1 65381U 25191C   26162.65900575 -.00003436  00000+0 -23429-3 0  9995
2 65381  97.3795  33.4053 0001271  89.1679 270.9694 15.05646739 44410
STARLINK-35032          
1 65382U 25191D   26162.62854238  .00003618  00000+0  25444-3 0  9996
2 65382  97.3745  33.2898 0003522  87.9574 272.2056 15.05674797 44403
STARLINK-35054          
1 65383U 25191E   26162.58699512  .00004913  00000+0  34416-3 0  9992
2 65383  97.3735  33.1946 0002155  98.6313 261.5159 15.05660534 44394
STARLINK-35012          
1 65384U 25191F   26162.63684098  .00000127  00000+0  12823-4 0  9994
2 65384  97.3731  33.2782 0002460  90.6135 269.5374 15.05654652 44406
STARLINK-35073          
1 65385U 25191G   26162.62023326  .00002667  00000+0  18872-3 0  9995
2 65385  97.3735  33.3009 0002688  87.2575 272.8960 15.05655632 44403
STARLINK-35066          
1 65386U 25191H   26162.60085000  .00005157  00000+0  36108-3 0  9990
2 65386  97.3735  33.3300 0001647  82.3204 277.8210 15.05659664 44409
STARLINK-34703          
1 65387U 25191J   26162.61469323  .00002344  00000+0  16638-3 0  9997
2 65387  97.3747  33.3091 0002614  81.7791 278.3733 15.05650859 44402
STARLINK-34957          
1 65388U 25191K   26162.59531149  .00003211  00000+0  22638-3 0  9992
2 65388  97.3745  33.3361 0001856  89.0394 271.1046 15.05659095 44407
STARLINK-34993          
1 65389U 25191L   26162.63960949  .00004437  00000+0  31118-3 0  9996
2 65389  97.3756  33.2764 0002761 111.7534 248.3987 15.05662832 44404
STARLINK-35083          
1 65390U 25191M   26162.65068447  .00005745  00000+0  40171-3 0  9994
2 65390  97.3745  33.2641 0002183 102.4671 257.6800 15.05662683 44406
STARLINK-34786          
1 65391U 25191N   26162.60361977  .00004628  00000+0  32446-3 0  9999
2 65391  97.3763  33.3233 0002040  82.9973 277.1486 15.05659411 44406
STARLINK-35082          
1 65392U 25191P   26162.58977611  .00005832  00000+0  40770-3 0  9992
2 65392  97.3751  33.3451 0001908  89.9739 270.1707 15.05663255 44405
STARLINK-35097          
1 65393U 25191Q   26162.62576690  .00003160  00000+0  22287-3 0  9995
2 65393  97.3736  33.2946 0002213  91.8513 268.2967 15.05654211 42955
STARLINK-35058          
1 65394U 25191R   26162.63129976 -.00001033  00000+0 -67590-4 0  9994
2 65394  97.3734  33.2866 0002916  88.6794 271.4767 15.05657213 44401
STARLINK-35094          
1 65395U 25191S   26162.63407625 -.00001107  00000+0 -72768-4 0  9990
2 65395  97.3765  33.2831 0001739  46.5159 313.6212 15.05647369 44414
STARLINK-34811          
1 65396U 25191T   26162.64791931  .00001865  00000+0  13318-3 0  9992
2 65396  97.3742  33.2664 0002968  87.4998 272.6569 15.05656389 44404
STARLINK-34940          
1 65397U 25191U   26162.61746378 -.00001210  00000+0 -79854-4 0  9999
2 65397  97.3752  33.3071 0002650  84.8017 275.3513 15.05663684 44405
STARLINK-34931          
1 65398U 25191V   26162.64238094  .00005550  00000+0  38822-3 0  9992
2 65398  97.3731  33.2748 0002364  95.2058 264.9439 15.05660386 44403
STARLINK-34836          
1 65399U 25191W   26162.62301306 -.00001857  00000+0 -12478-3 0  9995
2 65399  97.3739  33.2978 0002464  92.8207 267.3302 15.05637170 44408
STARLINK-34876          
1 65400U 25191X   26162.59809248  .00005497  00000+0  38462-3 0  9995
2 65400  97.3748  33.3332 0001730  92.3467 267.7959 15.05657797 44403
STARLINK-34909          
1 65401U 25191Y   26162.61192579  .00003831  00000+0  26930-3 0  9998
2 65401  97.3735  33.3140 0002192  84.1284 276.0194 15.05658235 44419
STARLINK-34848          
1 65402U 25191Z   26162.60638852  .00003183  00000+0  22446-3 0  9995
2 65402  97.3757  33.3224 0001986  81.1560 278.9892 15.05658060 44402
STARLINK-35031          
1 65404U 25192A   26162.28517617  .00017756  00000+0  53545-3 0  9992
2 65404  53.1581 166.8944 0001047  74.6670 285.4448 15.34396282 43582
STARLINK-34830          
1 65405U 25192B   26162.24521618  .00018759  00000+0  61450-3 0  9993
2 65405  53.1583 157.3959 0001564  85.6916 274.4264 15.31712859 43724
STARLINK-35036          
1 65406U 25192C   26162.28888441  .00018423  00000+0  63264-3 0  9991
2 65406  53.1555 157.6661 0001135  71.6326 288.4798 15.30197129 43713
STARLINK-35035          
1 65407U 25192D   26162.67761979  .00005480  00000+0  19715-3 0  9992
2 65407  53.1556 155.8254 0000993  85.0552 275.0562 15.30178062 43787
