OBJECT_NAME,OBJECT_ID,EPOCH,MEAN_MOTION,ECCENTRICITY,INCLINATION,RA_OF_ASC_NODE,ARG_OF_PERICENTER,MEAN_ANOMALY,EPHEMERIS_TYPE,CLASSIFICATION_TYPE,NORAD_CAT_ID,ELEMENT_SET_NO,REV_AT_EPOCH,BSTAR,MEAN_MOTION_DOT,MEAN_MOTION_DDOT
STARLINK-34879,2025-190AC,2026-06-11T02:56:44.937312,15.30203147,.00014131,53.1588,93.9395,92.6530,267.4633,0,U,65377,999,4406,.40521107E-3,.11662E-3,0
STARLINK-34912,2025-190AD,2026-06-11T12:11:56.816736,15.30210994,.0001312,53.1577,92.0780,89.1275,270.9876,0,U,65378,999,4412,.77432E-3,.22652E-3,0
STARLINK-34985,2025-191A,2026-06-11T17:04:35.512032,15.05983256,.0005366,97.3776,33.3312,155.5673,204.5810,0,U,65379,999,4441,.10645E-1,.158439E-2,0
STARLINK-35051,2025-191B,2026-06-11T14:37:11.292672,15.05656124,.0002434,97.3747,33.3162,84.4984,275.6521,0,U,65380,999,4441,.11352E-3,.1581E-4,0
STARLINK-35028,2025-191C,2026-06-11T15:48:58.096800,15.05646739,.0001271,97.3795,33.4053,89.1679,270.9694,0,U,65381,999,4441,-.23429E-3,-.3436E-4,0
STARLINK-35032,2025-191D,2026-06-11T15:05:06.061632,15.05674797,.0003522,97.3745,33.2898,87.9574,272.2056,0,U,65382,999,4440,.25444E-3,.3618E-4,0
STARLINK-35054,2025-191E,2026-06-11T14:05:16.378368,15.05660534,.0002155,97.3735,33.1946,98.6313,261.5159,0,U,65383,999,4439,.34416E-3,.4913E-4,0
STARLINK-35012,2025-191F,2026-06-11T15:17:03.060672,15.05654652,.000246,97.3731,33.2782,90.6135,269.5374,0,U,65384,999,4440,.12823E-4,.127E-5,0
STARLINK-35073,2025-191G,2026-06-11T14:53:08.153664,15.05655632,.0002688,97.3735,33.3009,87.2575,272.8960,0,U,65385,999,4440,.18872E-3,.2667E-4,0
STARLINK-35066,2025-191H,2026-06-11T14:25:13.440000,15.05659664,.0001647,97.3735,33.3300,82.3204,277.8210,0,U,65386,999,4440,.36108E-3,.5157E-4,0
STARLINK-34703,2025-191J,2026-06-11T14:45:09.495072,15.05650859,.0002614,97.3747,33.3091,81.7791,278.3733,0,U,65387,999,4440,.16638E-3,.2344E-4,0
STARLINK-34957,2025-191K,2026-06-11T14:17:14.912736,15.05659095,.0001856,97.3745,33.3361,89.0394,271.1046,0,U,65388,999,4440,.22638E-3,.3211E-4,0
STARLINK-34993,2025-191L,2026-06-11T15:21:02.259936,15.05662832,.0002761,97.3756,33.2764,111.7534,248.3987,0,U,65389,999,4440,.31118E-3,.4437E-4,0
STARLINK-35083,2025-191M,2026-06-11T15:36:59.138208,15.05662683,.0002183,97.3745,33.2641,102.4671,257.6800,0,U,65390,999,4440,.40171E-3,.5745E-4,0
STARLINK-34786,2025-191N,2026-06-11T14:29:12.748128,15.05659411,.000204,97.3763,33.3233,82.9973,277.1486,0,U,65391,999,4440,.32446E-3,.4628E-4,0
STARLINK-35082,2025-191P,2026-06-11T14:09:16.655904,15.05663255,.0001908,97.3751,33.3451,89.9739,270.1707,0,U,65392,999,4440,.4077E-3,.5832E-4,0
STARLINK-35097,2025-191Q,2026-06-11T15:01:06.260160,15.05654211,.0002213,97.3736,33.2946,91.8513,268.2967,0,U,65393,999,4295,.22287E-3,.316E-4,0
STARLINK-35058,2025-191R,2026-06-11T15:09:04.299264,15.05657213,.0002916,97.3734,33.2866,88.6794,271.4767,0,U,65394,999,4440,-.6759E-4,-.1033E-4,0
STARLINK-35094,2025-191S,2026-06-11T15:13:04.188000,15.05647369,.0001739,97.3765,33.2831,46.5159,313.6212,0,U,65395,999,4441,-.72768E-4,-.1107E-4,0
STARLINK-34811,2025-191T,2026-06-11T15:33:00.228384,15.05656389,.0002968,97.3742,33.2664,87.4998,272.6569,0,U,65396,999,4440,.13318E-3,.1865E-4,0
STARLINK-34940,2025-191U,2026-06-11T14:49:08.870592,15.05663684,.000265,97.3752,33.3071,84.8017,275.3513,0,U,65397,999,4440,-.79854E-4,-.121E-4,0
STARLINK-34931,2025-191V,2026-06-11T15:25:01.713216,15.05660386,.0002364,97.3731,33.2748,95.2058,264.9439,0,U,65398,999,4440,.38822E-3,.555E-4,0
STARLINK-34836,2025-191W,2026-06-11T14:57:08.328384,15.05637170,.0002464,97.3739,33.2978,92.8207,267.3302,0,U,65399,999,4440,-.12478E-3,-.1857E-4,0
STARLINK-34876,2025-191X,2026-06-11T14:21:15.190272,15.05657797,.000173,97.3748,33.3332,92.3467,267.7959,0,U,65400,999,4440,.38462E-3,.5497E-4,0
STARLINK-34909,2025-191Y,2026-06-11T14:41:10.388256,15.05658235,.0002192,97.3735,33.3140,84.1284,276.0194,0,U,65401,999,4441,.2693E-3,.3831E-4,0
STARLINK-34848,2025-191Z,2026-06-11T14:33:11.968128,15.05658060,.0001986,97.3757,33.3224,81.1560,278.9892,0,U,65402,999,4440,.22446E-3,.3183E-4,0
STARLINK-35031,2025-192A,2026-06-11T06:50:39.221088,15.34396282,.0001047,53.1581,166.8944,74.6670,285.4448,0,U,65404,999,4358,.53545E-3,.17756E-3,0
STARLINK-34830,2025-192B,2026-06-11T05:53:06.677952,15.31712859,.0001564,53.1583,157.3959,85.6916,274.4264,0,U,65405,999,4372,.6145E-3,.18759E-3,0
STARLINK-35036,2025-192C,2026-06-11T06:55:59.613024,15.30197129,.0001135,53.1555,157.6661,71.6326,288.4798,0,U,65406,999,4371,.63264E-3,.18423E-3,0
STARLINK-35035,2025-192D,2026-06-11T16:15:46.349856,15.30178062,.0000993,53.1556,155.8254,85.0552,275.0562,0,U,65407,999,4378,.19715E-3,.548E-4,0
